CENTAURI-7              
1 62708U 25009DD  26068.76467094  .00005487  00000+0  48082-3 0  9992
2 62708  97.7123 150.3372 0001973 133.1699 226.9688 14.97068612 62583
STARLINK-34473          
1 64354U 25126L   26068.29786687  .00001829  00000+0  16105-3 0  9998
2 64354  70.0032  35.4295 0002835 269.1154  90.9680 14.98332341 40622
